{
  "type": "FeatureCollection",
  "crs": {
    "type": "name",
    "properties": {
      "name": "EPSG:32610"
    }
  },
  "features": [
    {
      "type": "Feature",
      "id": 0,
      "properties": {
        "FID": 0,
        "area": 5711.1402423761265,
        "confidence": 0.5031837755163617,
        "date_mapped": "2025-01-01"
      },
      "geometry": {
        "type": "Polygon",
        "coordinates": [
          [
            [
              500211.25820449064,
              4200087.432332963
            ],
            [
              500137.2951327762,
              4200184.265443299
            ],
            [
              500011.9566974222,
              4200207.691760801
            ],
            [
              499964.66799530305,
              4200087.432332963
            ],
            [
              500016.2620033226,
              4199974.629913687
            ],
            [
              500143.9425665462,
              4199979.085529597
            ],
            [
              500211.25820449064,
              4200087.432332963
            ]
          ]
        ]
      }
    },
    {
      "type": "Feature",
      "id": 1,
      "properties": {
        "FID": 1,
        "area": 5738.051183569786,
        "confidence": 0.05242030973178324,
        "date_mapped": "2025-01-01"
      },
      "geometry": {
        "type": "Polygon",
        "coordinates": [
          [
            [
              500402.05771282146,
              4200037.829474699
            ],
            [
              500312.954630124,
              4200127.413948541
            ],
            [
              500222.21509416087,
              4200037.829474699
            ],
            [
              500312.954630124,
              4199958.337631071
            ],
            [
              500402.05771282146,
              4200037.829474699
            ]
          ]
        ]
      }
    },
    {
      "type": "Feature",
      "id": 2,
      "properties": {
        "FID": 2,
        "area": 2090.2430463341707,
        "confidence": 0.47592751643235753,
        "date_mapped": "2025-01-01"
      },
      "geometry": {
        "type": "Polygon",
        "coordinates": [
          [
            [
              500539.4379342409,
              4200112.155280197
            ],
            [
              500526.16200848884,
              4200140.681642218
            ],
            [
              500497.6356464682,
              4200153.905874847
            ],
            [
              500461.406169903,
              4200148.384756763
            ],
            [
              500450.13071953,
              4200112.155280197
            ],
            [
              500469.5615300949,
              4200084.081163824
            ],
            [
              500497.6356464682,
              4200060.943932577
            ],
            [
              500534.8447260694,
              4200074.946200596
            ],
            [
              500539.4379342409,
              4200112.155280197
            ]
          ]
        ]
      }
    },
    {
      "type": "Feature",
      "id": 3,
      "properties": {
        "FID": 3,
        "area": 4266.769381923099,
        "confidence": 0.9486242087643801,
        "date_mapped": "2025-01-01"
      },
      "geometry": {
        "type": "Polygon",
        "coordinates": [
          [
            [
              500767.9311301595,
              4200010.791338403
            ],
            [
              500650.36842544825,
              4200132.662290633
            ],
            [
              500535.9498367465,
              4200010.791338403
            ],
            [
              500650.36842544825,
              4199912.849113457
            ],
            [
              500767.9311301595,
              4200010.791338403
            ]
          ]
        ]
      }
    },
    {
      "type": "Feature",
      "id": 4,
      "properties": {
        "FID": 4,
        "area": 2155.635929493151,
        "confidence": 0.6527969300184817,
        "date_mapped": "2025-01-01"
      },
      "geometry": {
        "type": "Polygon",
        "coordinates": [
          [
            [
              501049.2342437468,
              4200052.111787809
            ],
            [
              501007.29920773575,
              4200122.939647648
            ],
            [
              500942.17589829565,
              4200161.488395409
            ],
            [
              500867.16555560933,
              4200148.629099192
            ],
            [
              500800.26322986535,
              4200096.744227947
            ],
            [
              500807.4782032098,
              4200010.10538321
            ],
            [
              500866.51284186874,
              4199954.463943065
            ],
            [
              500939.90390797117,
              4199955.620277631
            ],
            [
              501013.0265963508,
              4199976.478078296
            ],
            [
              501049.2342437468,
              4200052.111787809
            ]
          ]
        ]
      }
    },
    {
      "type": "Feature",
      "id": 5,
      "properties": {
        "FID": 5,
        "area": 3613.4246590452126,
        "confidence": 0.20150532560100176,
        "date_mapped": "2025-01-01"
      },
      "geometry": {
        "type": "Polygon",
        "coordinates": [
          [
            [
              500152.89994039363,
              4200277.365848968
            ],
            [
              500140.97296642925,
              4200302.558938767
            ],
            [
              500119.52564038377,
              4200326.006330399
            ],
            [
              500088.3944525684,
              4200316.431490378
            ],
            [
              500074.01636473846,
              4200290.808232935
            ],
            [
              500075.1339063725,
              4200264.33021689
            ],
            [
              500090.403167088,
              4200241.779403163
            ],
            [
              500119.00467696943,
              4200231.679897877
            ],
            [
              500139.4936573513,
              4200253.414046871
            ],
            [
              500152.89994039363,
              4200277.365848968
            ]
          ]
        ]
      }
    },
    {
      "type": "Feature",
      "id": 6,
      "properties": {
        "FID": 6,
        "area": 3680.5860552405625,
        "confidence": 0.8273934425403322,
        "date_mapped": "2025-01-01"
      },
      "geometry": {
        "type": "Polygon",
        "coordinates": [
          [
            [
              500314.91279629717,
              4200319.105401764
            ],
            [
              500231.60813113756,
              4200397.299665802
            ],
            [
              500164.7670250419,
              4200319.105401764
            ],
            [
              500231.60813113756,
              4200226.016300785
            ],
            [
              500314.91279629717,
              4200319.105401764
            ]
          ]
        ]
      }
    },
    {
      "type": "Feature",
      "id": 7,
      "properties": {
        "FID": 7,
        "area": 5802.194846077538,
        "confidence": 0.629974443759626,
        "date_mapped": "2025-01-01"
      },
      "geometry": {
        "type": "Polygon",
        "coordinates": [
          [
            [
              500509.6557489766,
              4200325.902300763
            ],
            [
              500434.7240128615,
              4200405.394668959
            ],
            [
              500342.489251588,
              4200325.902300763
            ],
            [
              500434.7240128615,
              4200237.774120997
            ],
            [
              500509.6557489766,
              4200325.902300763
            ]
          ]
        ]
      }
    },
    {
      "type": "Feature",
      "id": 8,
      "properties": {
        "FID": 8,
        "area": 2090.85070465383,
        "confidence": 0.9432696743482094,
        "date_mapped": "2025-01-01"
      },
      "geometry": {
        "type": "Polygon",
        "coordinates": [
          [
            [
              500831.62337998964,
              4200309.526532772
            ],
            [
              500798.92864398326,
              4200385.407320276
            ],
            [
              500723.04785647977,
              4200426.744631996
            ],
            [
              500632.3589128311,
              4200400.215476421
            ],
            [
              500616.9259045911,
              4200309.526532772
            ],
            [
              500647.6598701658,
              4200234.138546458
            ],
            [
              500723.04785647977,
              4200189.17276931
            ],
            [
              500813.23420908727,
              4200219.340180164
            ],
            [
              500831.62337998964,
              4200309.526532772
            ]
          ]
        ]
      }
    },
    {
      "type": "Feature",
      "id": 9,
      "properties": {
        "FID": 9,
        "area": 1473.2434622731673,
        "confidence": 0.018017601674182204,
        "date_mapped": "2025-01-01"
      },
      "geometry": {
        "type": "Polygon",
        "coordinates": [
          [
            [
              500853.22416013014,
              4200205.506308692
            ],
            [
              500811.4428772681,
              4200259.330669107
            ],
            [
              500759.62665690226,
              4200205.506308692
            ],
            [
              500811.4428772681,
              4200159.931514949
            ],
            [
              500853.22416013014,
              4200205.506308692
            ]
          ]
        ]
      }
    }
  ]
}